H1 CPF  1  DLR 2022 03 26 10  5852 technosat            
H2  1704205 6203    42829 2022 03 26 00 00 00 2022 04 02 00 00 00    60 1 1  0 0 0
H9
10 0 59665  79200.000000  0      -5927259.469       3053447.211      -2036576.717
10 0 59665  79260.000000  0      -5989553.699       3187906.929      -1602561.749
10 0 59665  79320.000000  0      -6025462.427       3309348.718      -1161737.344
10 0 59665  79380.000000  0      -6034948.370       3417027.679       -715976.096
10 0 59665  79440.000000  0      -6018093.205       3510257.773       -267172.176
10 0 59665  79500.000000  0      -5975096.779       3588415.820        182766.999
10 0 59665  79560.000000  0      -5906275.724       3650945.248        631929.234
10 0 59665  79620.000000  0      -5812061.362       3697359.435       1078405.950
10 0 59665  79680.000000  0      -5692997.214       3727244.799       1520300.509
10 0 59665  79740.000000  0      -5549735.878       3740263.481       1955736.600
10 0 59665  79800.000000  0      -5383035.364       3736155.618       2382866.336
10 0 59665  79860.000000  0      -5193755.101       3714741.281       2799878.273
10 0 59665  79920.000000  0      -4982851.348       3675921.985       3205005.321
10 0 59665  79980.000000  0      -4751372.160       3619681.786       3596532.314
10 0 59665  80040.000000  0      -4500451.977       3546087.966       3972803.353
10 0 59665  80100.000000  0      -4231305.791       3455291.247       4332228.769
10 0 59665  80160.000000  0      -3945223.127       3347525.657       4673291.716
10 0 59665  80220.000000  0      -3643561.703       3223108.031       4994554.561
10 0 59665  80280.000000  0      -3327740.723       3082437.088       5294664.813
10 0 59665  80340.000000  0      -2999234.001       2925992.089       5572360.620
10 0 59665  80400.000000  0      -2659562.916       2754331.094       5826475.851
10 0 59665  80460.000000  0      -2310289.263       2568088.883       6055944.752
10 0 59665  80520.000000  0      -1953007.952       2367974.500       6259806.186
10 0 59665  80580.000000  0      -1589339.590       2154768.424       6437207.350
10 0 59665  80640.000000  0      -1220923.127       1929319.454       6587406.944
10 0 59665  80700.000000  0       -849408.575       1692541.297       6709778.021
10 0 59665  80760.000000  0       -476449.702       1445408.804       6803810.403
10 0 59665  80820.000000  0       -103696.727       1188953.950       6869112.606
10 0 59665  80880.000000  0        267210.889        924261.541       6905413.300
10 0 59665  80940.000000  0        634651.550        652464.676       6912562.292
10 0 59665  81000.000000  0        997028.480        374739.961       6890531.077
10 0 59665  81060.000000  0       1352776.556         92302.502       6839412.934
10 0 59665  81120.000000  0       1700368.958       -193599.330       6759422.591
10 0 59665  81180.000000  0       2038323.651       -481689.367       6650895.397
10 0 59665  81240.000000  0       2365209.606       -770669.257       6514286.013
10 0 59665  81300.000000  0       2679652.845      -1059224.188       6350166.702
10 0 59665  81360.000000  0       2980342.246      -1346028.790       6159225.156
10 0 59665  81420.000000  0       3266035.065      -1629753.208       5942261.828
10 0 59665  81480.000000  0       3535562.136      -1909069.208       5700186.761
10 0 59665  81540.000000  0       3787832.724      -2182656.329       5434016.000
10 0 59665  81600.000000  0       4021839.052      -2449208.083       5144867.599
10 0 59665  81660.000000  0       4236660.475      -2707438.214       4833957.207
10 0 59665  81720.000000  0       4431467.282      -2956086.956       4502593.189
10 0 59665  81780.000000  0       4605524.087      -3193927.224       4152171.326
10 0 59665  81840.000000  0       4758192.809      -3419770.736       3784169.099
10 0 59665  81900.000000  0       4888935.223      -3632474.010       3400139.588
10 0 59665  81960.000000  0       4997315.043      -3830944.202       3001704.958
10 0 59665  82020.000000  0       5082999.482      -4014144.756       2590549.609
10 0 59665  82080.000000  0       5145760.302      -4181100.829       2168413.046
10 0 59665  82140.000000  0       5185474.388      -4330904.509       1737082.499
10 0 59665  82200.000000  0       5202123.835      -4462719.730       1298385.242
10 0 59665  82260.000000  0       5195795.525      -4575786.857        854180.739
10 0 59665  82320.000000  0       5166680.204      -4669426.980        406352.609
10 0 59665  82380.000000  0       5115071.009      -4743045.816        -43199.575
10 0 59665  82440.000000  0       5041361.541      -4796137.174       -492568.555
10 0 59665  82500.000000  0       4946043.453      -4828286.017       -939847.723
10 0 59665  82560.000000  0       4829703.498      -4839171.080      -1383139.469
10 0 59665  82620.000000  0       4693020.156      -4828567.030      -1820563.435
10 0 59665  82680.000000  0       4536759.838      -4796346.154      -2250264.704
10 0 59665  82740.000000  0       4361772.658      -4742479.550      -2670421.864
10 0 59665  82800.000000  0       4168987.814      -4667037.863      -3079254.863
10 0 59665  82860.000000  0       3959408.624      -4570191.526      -3475032.682
10 0 59665  82920.000000  0       3734107.277      -4452210.486      -3856080.736
10 0 59665  82980.000000  0       3494219.266      -4313463.464      -4220788.006
10 0 59665  83040.000000  0       3240937.554      -4154416.728      -4567613.854
10 0 59665  83100.000000  0       2975506.502      -3975632.394      -4895094.453
10 0 59665  83160.000000  0       2699215.633      -3777766.287      -5201848.815
10 0 59665  83220.000000  0       2413393.279      -3561565.367      -5486584.402
10 0 59665  83280.000000  0       2119400.200      -3327864.805      -5748102.356
10 0 59665  83340.000000  0       1818623.064      -3077584.643      -5985302.371
10 0 59665  83400.000000  0       1512467.882      -2811726.103      -6197187.151
10 0 59665  83460.000000  0       1202353.386      -2531367.449      -6382866.443
10 0 59665  83520.000000  0        889704.425      -2237659.479      -6541560.567
10 0 59665  83580.000000  0        575945.437      -1931820.698      -6672603.442
10 0 59665  83640.000000  0        262494.005      -1615132.216      -6775445.152
10 0 59665  83700.000000  0        -49245.484      -1288932.360      -6849654.046
10 0 59665  83760.000000  0       -357888.019       -954611.029      -6894918.376
10 0 59665  83820.000000  0       -662074.015       -613603.850      -6911047.523
10 0 59665  83880.000000  0       -960475.264       -267386.071      -6897972.761
10 0 59665  83940.000000  0      -1251800.698         82533.738      -6855747.497
10 0 59665  84000.000000  0      -1534801.908        434620.151      -6784547.076
10 0 59665  84060.000000  0      -1808278.450        787317.533      -6684668.151
10 0 59665  84120.000000  0      -2071082.878       1139056.863      -6556527.554
10 0 59665  84180.000000  0      -2322125.518       1488262.604      -6400660.702
10 0 59665  84240.000000  0      -2560379.012       1833359.654      -6217719.603
10 0 59665  84300.000000  0      -2784882.603       2172780.435      -6008470.395
10 0 59665  84360.000000  0      -2994746.047       2504972.033      -5773790.392
10 0 59665  84420.000000  0      -3189153.256       2828403.337      -5514664.707
10 0 59665  84480.000000  0      -3367365.631       3141572.170      -5232182.373
10 0 59665  84540.000000  0      -3528725.032       3443012.374      -4927531.991
10 0 59665  84600.000000  0      -3672656.355       3731300.803      -4601996.908
10 0 59665  84660.000000  0      -3798669.694       4005064.180      -4256949.957
10 0 59665  84720.000000  0      -3906362.077       4262985.782      -3893847.785
10 0 59665  84780.000000  0      -3995418.752       4503811.915      -3514224.820
10 0 59665  84840.000000  0      -4065614.106       4726358.184      -3119686.922
10 0 59665  84900.000000  0      -4116812.213       4929515.508      -2711904.605
10 0 59665  84960.000000  0      -4148966.897       5112255.775      -2292605.944
10 0 59665  85020.000000  0      -4162121.381       5273637.219      -1863569.231
10 0 59665  85080.000000  0      -4156407.501       5412809.457      -1426615.310
10 0 59665  85140.000000  0      -4132044.472       5529018.112       -983599.649
10 0 59665  85200.000000  0      -4089337.114       5621608.925       -536404.132
10 0 59665  85260.000000  0      -4028673.714       5690031.262        -86928.908
10 0 59665  85320.000000  0      -3950523.572       5733841.335        362915.894
10 0 59665  85380.000000  0      -3855434.010       5752704.843        811218.626
10 0 59665  85440.000000  0      -3744027.066       5746399.080       1256074.524
10 0 59665  85500.000000  0      -3616995.821       5714814.497       1695594.137
10 0 59665  85560.000000  0      -3475100.290       5657955.655       2127911.669
10 0 59665  85620.000000  0      -3319163.018       5575941.544       2551193.111
10 0 59665  85680.000000  0      -3150064.416       5469005.388       2963644.161
10 0 59665  85740.000000  0      -2968737.877       5337493.899       3363517.896
10 0 59665  85800.000000  0      -2776164.698       5181866.067       3749122.238
10 0 59665  85860.000000  0      -2573368.769       5002691.355       4118827.166
10 0 59665  85920.000000  0      -2361411.135       4800647.373       4471071.558
10 0 59665  85980.000000  0      -2141384.473       4576517.071       4804369.702
10 0 59665  86040.000000  0      -1914407.469       4331185.461       5117317.492
10 0 59665  86100.000000  0      -1681619.080       4065635.826       5408598.200
10 0 59665  86160.000000  0      -1444172.814       3780945.508       5676987.774
10 0 59665  86220.000000  0      -1203231.052       3478281.298       5921359.729
10 0 59665  86280.000000  0       -959959.377       3158894.442       6140689.632
10 0 59665  86340.000000  0       -715520.987       2824115.254       6334059.092
99
